SL-3 R/B                
1 19046U 88032B   19081.90326550  .00000556  00000-0  45718-4 0  9995
2 19046  97.4481 116.9127 0036253 305.8340  53.9519 15.02553877669000
SL-16 R/B               
1 19120U 88039B   19081.96506971 -.00000211  00000-0 -77358-4 0  9993
2 19120  71.0158  44.6316 0024283 279.8743  79.9641 14.19193010597455
COSMOS 1953             
1 19210U 88050A   19081.59521843  .00000499  00000-0  32472-4 0  9994
2 19210  82.5150 129.3261 0011888 219.2499 140.7867 15.05728801653512
SL-8 R/B                
1 19257U 88053B   19081.51970939  .00000098  00000-0  41319-4 0  9999
2 19257  74.0472 113.7742 0021074 208.4276 261.8345 14.37428801610923
COSMOS 1975             
1 19573U 88093A   19081.50807190 -.00000074  00000-0 -73359-5 0  9997
2 19573  82.5174  82.8183 0012587 265.9378  94.0410 15.04642990635391
SL-14 R/B               
1 19574U 88093B   19081.92412617  .00000073  00000-0  58750-5 0  9995
2 19574  82.5291 263.1753 0022407 150.8213 320.7508 14.83292112623781
SL-16 R/B               
1 19650U 88102B   19081.66762700  .00000224  00000-0  13841-3 0  9991
2 19650  70.9977 102.0167 0016502 281.3822  78.5447 14.15776259566794
INTERCOSMOS 24          
1 20261U 89080A   19082.15302249  .00000134  00000-0  31755-4 0  9995
2 20261  82.6030 312.9579 1203715  51.5279 318.7757 12.56055518346803
SL-14 R/B               
1 20262U 89080C   19081.79733249  .00000004  00000-0 -96690-6 0  9991
2 20262  82.5997   3.8586 1236165 229.1696 119.5657 12.48913140342054
DELTA 1 R/B             
1 20323U 89089B   19081.62958376 -.00000001  00000-0  88831-5 0  9994
2 20323  97.0776 295.8510 0070831 215.7606 143.8837 14.48293632547859
DELTA 2 R/B(1)          
1 20453U 90008B   19081.23118849  .00000736  00000-0  44881-4 0  9991
2 20453  35.6250  47.1528 0283019 123.9871 238.8073 14.84781836543786
COSMOS 2058             
1 20465U 90010A   19081.80794254  .00000284  00000-0  21821-4 0  9997
2 20465  82.4921 348.8547 0013992 288.7507  71.2197 14.97845733581670
SL-14 R/B               
1 20466U 90010B   19081.64310003  .00000074  00000-0  64698-5 0  9993
2 20466  82.5022 130.5286 0021210  29.0310 331.2078 14.81349714572757
SL-14 R/B               
1 20511U 90018B   19081.95972348  .00000042  00000-0  23983-5 0  9999
2 20511  82.5208  74.5771 0018032 157.2256 260.0928 14.80006434546180
HST                     
1 20580U 90037B   19081.41144038  .00000455  00000-0  16782-4 0  9990
2 20580  28.4697  75.6723 0002423 252.8772 240.0666 15.09191248387548
SL-16 R/B               
1 20625U 90046B   19081.89022003  .00000222  00000-0  14030-3 0  9994
2 20625  70.9981 238.0997 0015535 216.0692 143.9383 14.14642507488616
COSMOS 2084             
1 20663U 90055A   19081.79322861  .00000052  00000-0  23093-4 0  9991
2 20663  62.7927 239.4751 0088967 156.7210 203.7953 14.91954335555821
SL-6 R/B(2)             
1 20666U 90055D   19081.58913308 -.00000012  00000-0  17092-4 0  9992
2 20666  62.7858 157.5586 0054865 184.8148 175.2426 14.92225487557184
SL-8 R/B                
1 20775U 90078B   19081.86559651  .00004055  00000-0  19779-3 0  9999
2 20775  82.9260 239.4525 0579234 155.3017 207.7141 14.33073474440884
SL-8 R/B                
1 21088U 91006B   19081.96636281  .00000094  00000-0  79589-4 0  9990
2 21088  82.9387 261.6260 0021673 320.6552 146.5731 13.77114384413939
OKEAN-3                 
1 21397U 91039A   19081.94494261  .00000216  00000-0  18386-4 0  9991
2 21397  82.5199 246.7544 0016569 241.4306 118.5247 14.92777823484753
COSMOS 2151             
1 21422U 91042A   19081.92322399  .00000178  00000-0  15043-4 0  9998
2 21422  82.5034 353.7577 0012989 309.0950  50.9114 14.92030586483404
SL-14 R/B               
1 21423U 91042B   19082.08871919  .00000067  00000-0  58815-5 0  9996
2 21423  82.4914  79.6777 0016287 304.2298  55.7371 14.79757840497805
ERS-1                   
1 21574U 91050A   19082.18993871  .00000039  00000-0  27376-4 0  9991
2 21574  98.5407  32.0135 0032613 191.9109 168.1309 14.37686051450113
ARIANE 40 R/B           
1 21610U 91050F   19081.79405194  .00000004  00000-0  15127-4 0  9997
2 21610  98.5178 149.1332 0003681 158.9359 310.3776 14.40865256452796
INTERCOSMOS 25          
1 21819U 91086A   19081.94047993 -.00000229  00000-0 -52398-4 0  9995
2 21819  82.5891  37.1618 1518490 156.1696 211.7978 12.04953380189787
SL-14 R/B               
1 21820U 91086B   19082.12927690  .00000114  00000-0  18925-4 0  9998
2 21820  82.5556  98.6079 1576272   9.6865 353.1133 11.93437966183593
SL-8 R/B                
1 21876U 92008B   19081.89857432  .00000045  00000-0  30716-4 0  9998
2 21876  82.9308 358.7820 0035758  38.9843  28.3817 13.75637242359659
SL-8 R/B                
1 21938U 92020B   19081.94452061  .00000113  00000-0  10227-3 0  9996
2 21938  82.9282 242.5116 0028999 193.7031 276.8143 13.75273465351472
SL-16 R/B               
1 22220U 92076B   19081.69274551 -.00000287  00000-0 -12019-3 0  9995
2 22220  70.9986 144.6704 0012514   1.7149 104.1192 14.16441104361891
SL-16 R/B               
1 22285U 92093B   19081.95128052 -.00000179  00000-0 -67581-4 0  9993
2 22285  71.0204 301.8043 0006128 239.8443 120.2073 14.15028010353327
COSMOS 2228             
1 22286U 92094A   19081.76924643  .00000198  00000-0  18756-4 0  9993
2 22286  82.5188 127.0432 0022254 141.3713 218.9102 14.88025190418192
SL-16 R/B               
1 22566U 93016B   19082.23621155  .00000286  00000-0  17233-3 0  9990
2 22566  71.0072 155.0059 0012223 239.1270 120.8651 14.14956571342374
COSMOS 2242             
1 22626U 93024A   19081.70377195  .00000169  00000-0  15635-4 0  9994
2 22626  82.5233 155.0428 0020090 141.1340 219.1327 14.87884787401836
SL-16 R/B               
1 22803U 93059B   19081.91422015 -.00000216  00000-0 -84044-4 0  9999
2 22803  70.9920 332.9298 0015413 130.5496 229.6972 14.16806704319201
ARIANE 40 R/B           
1 22830U 93061H   19082.12407284  .00000002  00000-0  17974-4 0  9996
2 22830  98.8266 120.4782 0010656 200.7561 159.3190 14.31431311330364
COSMOS 2278             
1 23087U 94023A   19081.43031393  .00000283  00000-0  17455-3 0  9991
2 23087  71.0515  94.5430 0010265 304.5949  55.4205 14.13780152285169
SL-16 R/B               
1 23088U 94023B   19082.22130854 -.00000300  00000-0 -13121-3 0  9990
2 23088  71.0024  10.3128 0004874 229.9498 130.1197 14.14673357286625
SL-16 R/B               
1 23343U 94074B   19082.10867321  .00000012  00000-0  91676-5 0  9994
2 23343  98.0644 132.2719 0007397 155.8686 257.0004 14.76769410311860
SL-16 R/B               
1 23405U 94077B   19081.91078789 -.00000057  00000-0 -48904-5 0  9993
2 23405  70.9831 301.9648 0001134   2.0900 358.0227 14.15211109256336
ERS-2                   
1 23560U 95021A   19081.82515372  .00001079  00000-0  50545-4 0  9995
2 23560  98.5026 170.2161 0002199 276.8640  83.2342 15.22373094273268
ARIANE 40+ R/B          
1 23561U 95021B   19082.09076608  .00000016  00000-0  20493-4 0  9999
2 23561  98.7753 107.9493 0007604 147.3298 276.7364 14.37912790253785
SL-16 R/B               
1 23705U 95058B   19081.56058777  .00000205  00000-0  12989-3 0  9997
2 23705  71.0196 119.1815 0011213  28.7812 331.3927 14.15125297207908
SL-16 R/B               
1 24298U 96051B   19081.76381878  .00000006  00000-0  29838-4 0  9993
2 24298  70.8249 145.1647 0017967 296.5661  63.3617 14.12391980162430
ORBVIEW 2 (SEASTAR)     
1 24883U 97037A   19081.90044267  .00000048  00000-0  33225-4 0  9993
2 24883  98.5746 193.3922 0002516  31.3126 328.8208 14.33495121143872
SL-16 R/B               
1 25400U 98043G   19081.82624365 -.00000020  00000-0  95830-5 0  9993
2 25400  98.5652  22.2460 0009290 209.7194 150.3459 14.25438508 76534
SL-16 R/B               
1 25407U 98045B   19081.59568095  .00000156  00000-0  10376-3 0  9992
2 25407  71.0092 129.3096 0009657 297.5369  62.4772 14.15784832 66987
ISS (ZARYA)             
1 25544U 98067A   19082.73287037 -.00000471  00000-0  00000+0 0  9999
2 25544  51.6400  66.0158 0003541 163.6942 198.3167 15.52657958161981
SL-8 R/B                
1 25723U 99022C   19081.67447801  .00006765  00000-0  75511-4 0  9994
2 25723  48.4134 310.9981 0007918 275.1070  84.8975 15.63947401106584
CZ-4B R/B               
1 25732U 99025C   19081.92852154 -.00000043  00000-0  11686-5 0  9994
2 25732  98.9836 101.4842 0038240  60.3661 359.9503 14.17660935 27705
OKEAN-O                 
1 25860U 99039A   19081.99281038  .00000008  00000-0  87463-5 0  9991
2 25860  98.2279  87.6468 0000922 109.9128 250.2180 14.76595358 58837
SL-16 R/B               
1 25861U 99039B   19081.92659507  .00000014  00000-0  94053-5 0  9995
2 25861  98.1837  70.7884 0015924 166.6786 250.5062 14.78521429 60756
TERRA                   
1 25994U 99068A   19082.11914411  .00000443  00000-0  10841-3 0  9991
2 25994  98.2107 157.9305 0001368 111.8786 248.2577 14.57111666 24445
ENVISAT                 
1 27386U 02009A   19081.07641791 -.00000004  00000-0  12215-4 0  9991
2 27386  98.1567 106.5960 0001176  77.1512 282.9842 14.37943759893466
IDEFIX & ARIANE 42P R/B 
1 27422U 02021B   19081.93923326 -.00000029  00000-0  47964-5 0  9995
2 27422  98.2913  58.4079 0013188 125.7893 234.4518 14.29268853880528
AQUA                    
1 27424U 02022A   19081.94558381  .00000086  00000-0  29183-4 0  9998
2 27424  98.2108  24.1268 0001401 348.7294  78.9901 14.57102463897972
CZ-4B R/B               
1 27432U 02024C   19081.92247904 -.00000041  00000-0  28254-5 0  9994
2 27432  99.0650  71.9724 0050765  14.4018  46.3588 14.14076919869694
MIDORI II (ADEOS-II)    
1 27597U 02056A   19081.85339114  .00000027  00000-0  28430-4 0  9996
2 27597  98.4623  37.3784 0000526 138.7657 221.3564 14.27389535847241
H-2A R/B                
1 27601U 02056E   19082.14329340  .00000035  00000-0  27800-4 0  9994
2 27601  98.2875 134.6264 0072253 182.6831 234.8455 14.31883917849963
